ISS (ZARYA)             
1 25544U 98067A   26037.53476767  .00011792  00000+0  22585-3 0  9997
2 25544  51.6316 226.3678 0011132  70.9201 289.2992 15.48439420551502
CSS (TIANHE)            
1 48274U 21035A   26037.47343961  .00022506  00000+0  28124-3 0  9995
2 48274  41.4680  37.9008 0005396  13.3696 346.7284 15.59287012272733
ISS (NAUKA)             
1 49044U 21066A   26037.53476767  .00011792  00000+0  22585-3 0  9993
2 49044  51.6316 226.3678 0011132  70.9201 289.2992 15.48439420230440
FREGAT DEB              
1 49271U 11037PF  26036.33500904  .00055371  00000+0  93522-1 0  9998
2 49271  51.6559  37.5500 0926622 345.1637  12.3633 12.37884067208680
CSS (WENTIAN)           
1 53239U 22085A   26037.47343961  .00022506  00000+0  28124-3 0  9998
2 53239  41.4680  37.9008 0005396  13.3696 346.7284 15.59287012173842
CSS (MENGTIAN)          
1 54216U 22143A   26037.47343961  .00022506  00000+0  28124-3 0  9999
2 54216  41.4680  37.9008 0005396  13.3696 346.7284 15.59287012158649
PROGRESS-MS 31          
1 64751U 25146A   26037.53476767  .00011792  00000+0  22585-3 0  9998
2 64751  51.6316 226.3678 0011132  70.9201 289.2992 15.48439420  6757
TIANZHOU-9              
1 64786U 25149A   26037.47343961  .00022506  00000+0  28124-3 0  9991
2 64786  41.4680  37.9008 0005396  13.3696 346.7284 15.59287012255303
DRAGON CRS-33           
1 65304U 25186A   26037.53476767  .00011792  00000+0  22585-3 0  9997
2 65304  51.6316 226.3678 0011132  70.9201 289.2992 15.48439420   116
PROGRESS-MS 32          
1 65586U 25204A   26037.53476767  .00011792  00000+0  22585-3 0  9990
2 65586  51.6316 226.3678 0011132  70.9201 289.2992 15.48439420   275
CYGNUS NG-23            
1 65616U 25208A   26037.53476767  .00011792  00000+0  22585-3 0  9998
2 65616  51.6316 226.3678 0011132  70.9201 289.2992 15.48439420   224
1998-067XK              
1 65731U 98067XK  26037.51361173  .00289830  00000+0  12653-2 0  9995
2 65731  51.6225 211.1795 0003514 251.4294 108.6327 15.83357185 21928
